[{"OBJECT_NAME":"STARLINK-30800","OBJECT_ID":"2023-170A","EPOCH":"2023-11-21T12:00:00.999648","MEAN_MOTION":15.62956145,"ECCENTRICITY":0.0001259,"INCLINATION":43.0001,"RA_OF_ASC_NODE":82.3427,"ARG_OF_PERICENTER":280.8247,"MEAN_ANOMALY":221.3208,"EPHEMERIS_TYPE":0,"CLASSIFICATION_TYPE":"U","NORAD_CAT_ID":58206,"ELEMENT_SET_NO":999,"REV_AT_EPOCH":398,"BSTAR":-0.02029,"MEAN_MOTION_DOT":-0.01665858,"MEAN_MOTION_DDOT":0},{"OBJECT_NAME":"STARLINK-30845","OBJECT_ID":"2023-170B","EPOCH":"2023-11-21T04:00:00.999936","MEAN_MOTION":15.64127475,"ECCENTRICITY":0.0001423,"INCLINATION":43.0006,"RA_OF_ASC_NODE":84.3263,"ARG_OF_PERICENTER":280.7797,"MEAN_ANOMALY":143.4813,"EPHEMERIS_TYPE":0,"CLASSIFICATION_TYPE":"U","NORAD_CAT_ID":58207,"ELEMENT_SET_NO":999,"REV_AT_EPOCH":394,"BSTAR":-0.018956,"MEAN_MOTION_DOT":-0.01634945,"MEAN_MOTION_DDOT":0},{"OBJECT_NAME":"STARLINK-30841","OBJECT_ID":"2023-170C","EPOCH":"2023-11-21T04:00:00.999936","MEAN_MOTION":15.64127885,"ECCENTRICITY":0.0001565,"INCLINATION":43.0003,"RA_OF_ASC_NODE":84.3246,"ARG_OF_PERICENTER":272.9648,"MEAN_ANOMALY":151.9067,"EPHEMERIS_TYPE":0,"CLASSIFICATION_TYPE":"U","NORAD_CAT_ID":58208,"ELEMENT_SET_NO":999,"REV_AT_EPOCH":381,"BSTAR":-0.018983,"MEAN_MOTION_DOT":-0.01637112,"MEAN_MOTION_DDOT":0},{"OBJECT_NAME":"STARLINK-30839","OBJECT_ID":"2023-170D","EPOCH":"2023-11-21T12:00:00.999648","MEAN_MOTION":15.62949254,"ECCENTRICITY":0.0001097,"INCLINATION":43.0002,"RA_OF_ASC_NODE":82.3363,"ARG_OF_PERICENTER":278.8439,"MEAN_ANOMALY":225.7364,"EPHEMERIS_TYPE":0,"CLASSIFICATION_TYPE":"U","NORAD_CAT_ID":58209,"ELEMENT_SET_NO":999,"REV_AT_EPOCH":399,"BSTAR":-0.02024,"MEAN_MOTION_DOT":-0.01661748,"MEAN_MOTION_DDOT":0},{"OBJECT_NAME":"STARLINK-30846","OBJECT_ID":"2023-170E","EPOCH":"2023-11-21T04:00:00.999936","MEAN_MOTION":15.64125765,"ECCENTRICITY":0.0001593,"INCLINATION":43.0006,"RA_OF_ASC_NODE":84.3231,"ARG_OF_PERICENTER":278.5796,"MEAN_ANOMALY":146.9015,"EPHEMERIS_TYPE":0,"CLASSIFICATION_TYPE":"U","NORAD_CAT_ID":58210,"ELEMENT_SET_NO":999,"REV_AT_EPOCH":381,"BSTAR":-0.018972,"MEAN_MOTION_DOT":-0.01636168,"MEAN_MOTION_DDOT":0},{"OBJECT_NAME":"STARLINK-30838","OBJECT_ID":"2023-170F","EPOCH":"2023-11-21T04:00:00.999936","MEAN_MOTION":15.64122233,"ECCENTRICITY":0.0001653,"INCLINATION":43.0004,"RA_OF_ASC_NODE":84.3187,"ARG_OF_PERICENTER":270.4198,"MEAN_ANOMALY":156.8921,"EPHEMERIS_TYPE":0,"CLASSIFICATION_TYPE":"U","NORAD_CAT_ID":58211,"ELEMENT_SET_NO":999,"REV_AT_EPOCH":393,"BSTAR":-0.018972,"MEAN_MOTION_DOT":-0.01636001,"MEAN_MOTION_DDOT":0},{"OBJECT_NAME":"STARLINK-30837","OBJECT_ID":"2023-170G","EPOCH":"2023-11-21T04:00:00.999936","MEAN_MOTION":15.64124716,"ECCENTRICITY":0.0001773,"INCLINATION":43.0001,"RA_OF_ASC_NODE":84.32,"ARG_OF_PERICENTER":269.2491,"MEAN_ANOMALY":157.4517,"EPHEMERIS_TYPE":0,"CLASSIFICATION_TYPE":"U","NORAD_CAT_ID":58212,"ELEMENT_SET_NO":999,"REV_AT_EPOCH":394,"BSTAR":-0.018984,"MEAN_MOTION_DOT":-0.01637135,"MEAN_MOTION_DDOT":0},{"OBJECT_NAME":"STARLINK-30813","OBJECT_ID":"2023-170H","EPOCH":"2023-11-21T12:00:00.999648","MEAN_MOTION":15.62945704,"ECCENTRICITY":0.0001135,"INCLINATION":43.0002,"RA_OF_ASC_NODE":82.3317,"ARG_OF_PERICENTER":280.1298,"MEAN_ANOMALY":226.276,"EPHEMERIS_TYPE":0,"CLASSIFICATION_TYPE":"U","NORAD_CAT_ID":58213,"ELEMENT_SET_NO":999,"REV_AT_EPOCH":387,"BSTAR":-0.020253,"MEAN_MOTION_DOT":-0.01662503,"MEAN_MOTION_DDOT":0},{"OBJECT_NAME":"STARLINK-30805","OBJECT_ID":"2023-170J","EPOCH":"2023-11-21T04:00:00.999936","MEAN_MOTION":15.64118639,"ECCENTRICITY":0.0001494,"INCLINATION":43.0004,"RA_OF_ASC_NODE":84.3148,"ARG_OF_PERICENTER":281.0858,"MEAN_ANOMALY":147.4465,"EPHEMERIS_TYPE":0,"CLASSIFICATION_TYPE":"U","NORAD_CAT_ID":58214,"ELEMENT_SET_NO":999,"REV_AT_EPOCH":392,"BSTAR":-0.018969,"MEAN_MOTION_DOT":-0.01635467,"MEAN_MOTION_DDOT":0},{"OBJECT_NAME":"STARLINK-30851","OBJECT_ID":"2023-170K","EPOCH":"2023-11-21T04:00:00.999936","MEAN_MOTION":15.64117526,"ECCENTRICITY":0.000143,"INCLINATION":43.0004,"RA_OF_ASC_NODE":84.3133,"ARG_OF_PERICENTER":279.8593,"MEAN_ANOMALY":149.2833,"EPHEMERIS_TYPE":0,"CLASSIFICATION_TYPE":"U","NORAD_CAT_ID":58215,"ELEMENT_SET_NO":999,"REV_AT_EPOCH":381,"BSTAR":-0.018979,"MEAN_MOTION_DOT":-0.01636125,"MEAN_MOTION_DDOT":0},{"OBJECT_NAME":"STARLINK-30786","OBJECT_ID":"2023-170L","EPOCH":"2023-11-21T04:00:00.999936","MEAN_MOTION":15.64117597,"ECCENTRICITY":0.0001573,"INCLINATION":43.0004,"RA_OF_ASC_NODE":84.3119,"ARG_OF_PERICENTER":275.9525,"MEAN_ANOMALY":153.8003,"EPHEMERIS_TYPE":0,"CLASSIFICATION_TYPE":"U","NORAD_CAT_ID":58216,"ELEMENT_SET_NO":999,"REV_AT_EPOCH":392,"BSTAR":-0.018996,"MEAN_MOTION_DOT":-0.01637511,"MEAN_MOTION_DDOT":0},{"OBJECT_NAME":"STARLINK-30818","OBJECT_ID":"2023-170M","EPOCH":"2023-11-21T04:00:00.999936","MEAN_MOTION":15.64116815,"ECCENTRICITY":0.0001617,"INCLINATION":43.0004,"RA_OF_ASC_NODE":84.3102,"ARG_OF_PERICENTER":268.511,"MEAN_ANOMALY":161.8514,"EPHEMERIS_TYPE":0,"CLASSIFICATION_TYPE":"U","NORAD_CAT_ID":58217,"ELEMENT_SET_NO":999,"REV_AT_EPOCH":393,"BSTAR":-0.018999,"MEAN_MOTION_DOT":-0.01637721,"MEAN_MOTION_DDOT":0},{"OBJECT_NAME":"STARLINK-30794","OBJECT_ID":"2023-170N","EPOCH":"2023-11-21T04:00:00.999936","MEAN_MOTION":15.64117206,"ECCENTRICITY":0.0001749,"INCLINATION":43.0002,"RA_OF_ASC_NODE":84.3086,"ARG_OF_PERICENTER":269.8228,"MEAN_ANOMALY":161.1488,"EPHEMERIS_TYPE":0,"CLASSIFICATION_TYPE":"U","NORAD_CAT_ID":58218,"ELEMENT_SET_NO":999,"REV_AT_EPOCH":393,"BSTAR":-0.019026,"MEAN_MOTION_DOT":-0.01639881,"MEAN_MOTION_DDOT":0},{"OBJECT_NAME":"STARLINK-30835","OBJECT_ID":"2023-170P","EPOCH":"2023-11-21T04:00:00.999936","MEAN_MOTION":15.64114163,"ECCENTRICITY":0.0001511,"INCLINATION":43.0004,"RA_OF_ASC_NODE":84.3071,"ARG_OF_PERICENTER":269.5027,"MEAN_ANOMALY":162.0803,"EPHEMERIS_TYPE":0,"CLASSIFICATION_TYPE":"U","NORAD_CAT_ID":58219,"ELEMENT_SET_NO":999,"REV_AT_EPOCH":381,"BSTAR":-0.019008,"MEAN_MOTION_DOT":-0.01638187,"MEAN_MOTION_DDOT":0},{"OBJECT_NAME":"STARLINK-30792","OBJECT_ID":"2023-170Q","EPOCH":"2023-11-21T04:00:00.999936","MEAN_MOTION":15.64113018,"ECCENTRICITY":0.0001631,"INCLINATION":42.9999,"RA_OF_ASC_NODE":84.3053,"ARG_OF_PERICENTER":268.52,"MEAN_ANOMALY":163.6727,"EPHEMERIS_TYPE":0,"CLASSIFICATION_TYPE":"U","NORAD_CAT_ID":58220,"ELEMENT_SET_NO":999,"REV_AT_EPOCH":393,"BSTAR":-0.019006,"MEAN_MOTION_DOT":-0.01638043,"MEAN_MOTION_DDOT":0},{"OBJECT_NAME":"STARLINK-30836","OBJECT_ID":"2023-170R","EPOCH":"2023-11-21T04:00:00.999936","MEAN_MOTION":15.64109971,"ECCENTRICITY":0.0001469,"INCLINATION":43,"RA_OF_ASC_NODE":84.3037,"ARG_OF_PERICENTER":279.971,"MEAN_ANOMALY":152.8333,"EPHEMERIS_TYPE":0,"CLASSIFICATION_TYPE":"U","NORAD_CAT_ID":58221,"ELEMENT_SET_NO":999,"REV_AT_EPOCH":381,"BSTAR":-0.018986,"MEAN_MOTION_DOT":-0.01636245,"MEAN_MOTION_DDOT":0}]
