STARLINK-30800          
1 58206U 23170A   23325.50001157 -.01665858  00000+0 -20290-1 0  9992
2 58206  43.0001  82.3427 0001259 280.8247 221.3208 15.62956145  3987
STARLINK-30845          
1 58207U 23170B   23325.16667824 -.01634945  00000+0 -18956-1 0  9993
2 58207  43.0006  84.3263 0001423 280.7797 143.4813 15.64127475  3945
STARLINK-30841          
1 58208U 23170C   23325.16667824 -.01637112  00000+0 -18983-1 0  9993
2 58208  43.0003  84.3246 0001565 272.9648 151.9067 15.64127885  3815
STARLINK-30839          
1 58209U 23170D   23325.50001157 -.01661748  00000+0 -20240-1 0  9994
2 58209  43.0002  82.3363 0001097 278.8439 225.7364 15.62949254  3995
STARLINK-30846          
1 58210U 23170E   23325.16667824 -.01636168  00000+0 -18972-1 0  9994
2 58210  43.0006  84.3231 0001593 278.5796 146.9015 15.64125765  3814
STARLINK-30838          
1 58211U 23170F   23325.16667824 -.01636001  00000+0 -18972-1 0  9991
2 58211  43.0004  84.3187 0001653 270.4198 156.8921 15.64122233  3933
STARLINK-30837          
1 58212U 23170G   23325.16667824 -.01637135  00000+0 -18984-1 0  9994
2 58212  43.0001  84.3200 0001773 269.2491 157.4517 15.64124716  3949
STARLINK-30813          
1 58213U 23170H   23325.50001157 -.01662503  00000+0 -20253-1 0  9993
2 58213  43.0002  82.3317 0001135 280.1298 226.2760 15.62945704  3870
STARLINK-30805          
1 58214U 23170J   23325.16667824 -.01635467  00000+0 -18969-1 0  9995
2 58214  43.0004  84.3148 0001494 281.0858 147.4465 15.64118639  3920
STARLINK-30851          
1 58215U 23170K   23325.16667824 -.01636125  00000+0 -18979-1 0  9999
2 58215  43.0004  84.3133 0001430 279.8593 149.2833 15.64117526  3817
STARLINK-30786          
1 58216U 23170L   23325.16667824 -.01637511  00000+0 -18996-1 0  9999
2 58216  43.0004  84.3119 0001573 275.9525 153.8003 15.64117597  3922
STARLINK-30818          
1 58217U 23170M   23325.16667824 -.01637721  00000+0 -18999-1 0  9996
2 58217  43.0004  84.3102 0001617 268.5110 161.8514 15.64116815  3931
STARLINK-30794          
1 58218U 23170N   23325.16667824 -.01639881  00000+0 -19026-1 0  9998
2 58218  43.0002  84.3086 0001749 269.8228 161.1488 15.64117206  3939
STARLINK-30835          
1 58219U 23170P   23325.16667824 -.01638187  00000+0 -19008-1 0  9997
2 58219  43.0004  84.3071 0001511 269.5027 162.0803 15.64114163  3814
STARLINK-30792          
1 58220U 23170Q   23325.16667824 -.01638043  00000+0 -19006-1 0  9998
2 58220  42.9999  84.3053 0001631 268.5200 163.6727 15.64113018  3935
STARLINK-30836          
1 58221U 23170R   23325.16667824 -.01636245  00000+0 -18986-1 0  9997
2 58221  43.0000  84.3037 0001469 279.9710 152.8333 15.64109971  3817
